{"type": "FeatureCollection", "features": [ {"type": "Feature", "properties": {"norad_id": 33779, "name": "COSMOS 2251 DEB", "group": "cosmos-2251-debris", "lat": -62.43311515066581, "lon": 32.83490592023415, "alt_km": 656.6536637926456, "timestamp": "2025-12-08T03:50:07.388565+00:00", "meta": {"OBJECT_NAME": "COSMOS 2251 DEB", "OBJECT_ID": "1993-036U", "EPOCH": "2025-12-07T07:55:49.042272", "MEAN_MOTION": 14.70278982, "ECCENTRICITY": 0.00174739, "INCLINATION": 74.044, "RA_OF_ASC_NODE": 181.2095, "ARG_OF_PERICENTER": 215.6862, "MEAN_ANOMALY": 323.2628, "EPHEMERIS_TYPE": 0, "CLASSIFICATION_TYPE": "U", "NORAD_CAT_ID": 33779, "ELEMENT_SET_NO": 999, "REV_AT_EPOCH": 88448, "BSTAR": 0.0022632224, "MEAN_MOTION_DOT": 0.00013688, "MEAN_MOTION_DDOT": 0}, "tle": {"line1": "1 33779U 93036U   25341.33042873  .00013688  00000+0  22632-2 0  9997", "line2": "2 33779  74.0440 181.2095 0017473 215.6862 323.2628 14.70278982884484"}}, "geometry": {"type": "Point", "coordinates": [32.83490592023415, -62.43311515066581]}}, {"type": "Feature", "properties": {"norad_id": 33782, "name": "COSMOS 2251 DEB", "group": "cosmos-2251-debris", "lat": 37.19760442172776, "lon": 93.46760548324664, "alt_km": 766.6610751836442, "timestamp": "2025-12-08T03:50:07.388575+00:00", "meta": {"OBJECT_NAME": "COSMOS 2251 DEB", "OBJECT_ID": "1993-036X", "EPOCH": "2025-12-06T21:27:51.338016", "MEAN_MOTION": 14.40421814, "ECCENTRICITY": 0.00205291, "INCLINATION": 74.0339, "RA_OF_ASC_NODE": 288.3566, "ARG_OF_PERICENTER": 354.1408, "MEAN_ANOMALY": 67.2396, "EPHEMERIS_TYPE": 0, "CLASSIFICATION_TYPE": "U", "NORAD_CAT_ID": 33782, "ELEMENT_SET_NO": 999, "REV_AT_EPOCH": 88042, "BSTAR": 0.00081257636, "MEAN_MOTION_DOT": 2.562e-05, "MEAN_MOTION_DDOT": 0}, "tle": {"line1": "1 33782U 93036X   25340.89434419  .00002562  00000+0  81258-3 0  9991", "line2": "2 33782  74.0339 288.3566 0020529 354.1408  67.2396 14.40421814880426"}}, "geometry": {"type": "Point", "coordinates": [93.46760548324664, 37.19760442172776]}}, {"type": "Feature", "properties": {"norad_id": 33785, "name": "COSMOS 2251 DEB", "group": "cosmos-2251-debris", "lat": -37.626642866860294, "lon": -98.20189559746362, "alt_km": 679.3214757706437, "timestamp": "2025-12-08T03:50:07.388585+00:00", "meta": {"OBJECT_NAME": "COSMOS 2251 DEB", "OBJECT_ID": "1993-036AA", "EPOCH": "2025-12-07T05:44:45.589056", "MEAN_MOTION": 14.70290132, "ECCENTRICITY": 0.00217345, "INCLINATION": 73.868, "RA_OF_ASC_NODE": 70.7093, "ARG_OF_PERICENTER": 11.3408, "MEAN_ANOMALY": 18.4222, "EPHEMERIS_TYPE": 0, "CLASSIFICATION_TYPE": "U", "NORAD_CAT_ID": 33785, "ELEMENT_SET_NO": 999, "REV_AT_EPOCH": 88426, "BSTAR": 0.0028737501, "MEAN_MOTION_DOT": 0.00017425, "MEAN_MOTION_DDOT": 0}, "tle": {"line1": "1 33785U 93036AA  25341.23941654  .00017425  00000+0  28738-2 0  9994", "line2": "2 33785  73.8680  70.7093 0021734  11.3408  18.4222 14.70290132884266"}}, "geometry": {"type": "Point", "coordinates": [-98.20189559746362, -37.626642866860294]}}, {"type": "Feature", "properties": {"norad_id": 33789, "name": "COSMOS 2251 DEB", "group": "cosmos-2251-debris", "lat": -52.25074781551753, "lon": 73.52608324602734, "alt_km": 944.3131421594007, "timestamp": "2025-12-08T03:50:07.388596+00:00", "meta": {"OBJECT_NAME": "COSMOS 2251 DEB", "OBJECT_ID": "1993-036AE", "EPOCH": "2025-12-07T07:27:14.653728", "MEAN_MOTION": 13.88776138, "ECCENTRICITY": 0.02403777, "INCLINATION": 74.065, "RA_OF_ASC_NODE": 96.62, "ARG_OF_PERICENTER": 213.4431, "MEAN_ANOMALY": 164.4245, "EPHEMERIS_TYPE": 0, "CLASSIFICATION_TYPE": "U", "NORAD_CAT_ID": 33789, "ELEMENT_SET_NO": 999, "REV_AT_EPOCH": 85020, "BSTAR": 0.0013929803, "MEAN_MOTION_DOT": 2.094e-05, "MEAN_MOTION_DDOT": 0}, "tle": {"line1": "1 33789U 93036AE  25341.31058627  .00002094  00000+0  13930-2 0  9990", "line2": "2 33789  74.0650  96.6200 0240377 213.4431 164.4245 13.88776138850201"}}, "geometry": {"type": "Point", "coordinates": [73.52608324602734, -52.25074781551753]}}, {"type": "Feature", "properties": {"norad_id": 33791, "name": "COSMOS 2251 DEB", "group": "cosmos-2251-debris", "lat": 1.2146437489854311, "lon": 46.36080094201317, "alt_km": 760.7928420993994, "timestamp": "2025-12-08T03:50:07.388606+00:00", "meta": {"OBJECT_NAME": "COSMOS 2251 DEB", "OBJECT_ID": "1993-036AG", "EPOCH": "2025-12-07T04:41:30.817248", "MEAN_MOTION": 14.43080889, "ECCENTRICITY": 0.00305904, "INCLINATION": 74.1756, "RA_OF_ASC_NODE": 47.791, "ARG_OF_PERICENTER": 245.9307, "MEAN_ANOMALY": 147.4821, "EPHEMERIS_TYPE": 0, "CLASSIFICATION_TYPE": "U", "NORAD_CAT_ID": 33791, "ELEMENT_SET_NO": 999, "REV_AT_EPOCH": 87972, "BSTAR": 0.0011554096, "MEAN_MOTION_DOT": 3.873e-05, "MEAN_MOTION_DDOT": 0}, "tle": {"line1": "1 33791U 93036AG  25341.19549557  .00003873  00000+0  11554-2 0  9992", "line2": "2 33791  74.1756  47.7910 0030590 245.9307 147.4821 14.43080889879725"}}, "geometry": {"type": "Point", "coordinates": [46.36080094201317, 1.2146437489854311]}}, {"type": "Feature", "properties": {"norad_id": 33792, "name": "COSMOS 2251 DEB", "group": "cosmos-2251-debris", "lat": -32.86863995939833, "lon": -176.58670649776306, "alt_km": 1382.5619630999772, "timestamp": "2025-12-08T03:50:07.388616+00:00", "meta": {"OBJECT_NAME": "COSMOS 2251 DEB", "OBJECT_ID": "1993-036AH", "EPOCH": "2025-12-07T07:15:26.585856", "MEAN_MOTION": 13.45811049, "ECCENTRICITY": 0.04268749, "INCLINATION": 73.9009, "RA_OF_ASC_NODE": 354.0274, "ARG_OF_PERICENTER": 59.6931, "MEAN_ANOMALY": 319.9722, "EPHEMERIS_TYPE": 0, "CLASSIFICATION_TYPE": "U", "NORAD_CAT_ID": 33792, "ELEMENT_SET_NO": 999, "REV_AT_EPOCH": 82369, "BSTAR": 0.0011058596, "MEAN_MOTION_DOT": 1.125e-05, "MEAN_MOTION_DDOT": 0}, "tle": {"line1": "1 33792U 93036AH  25341.30239104  .00001125  00000+0  11059-2 0  9998", "line2": "2 33792  73.9009 354.0274 0426874  59.6931 319.9722 13.45811049823690"}}, "geometry": {"type": "Point", "coordinates": [-176.58670649776306, -32.86863995939833]}}, {"type": "Feature", "properties": {"norad_id": 33793, "name": "COSMOS 2251 DEB", "group": "cosmos-2251-debris", "lat": 39.67108697968014, "lon": -35.54336529745593, "alt_km": 851.5025370931453, "timestamp": "2025-12-08T03:50:07.388627+00:00", "meta": {"OBJECT_NAME": "COSMOS 2251 DEB", "OBJECT_ID": "1993-036AJ", "EPOCH": "2025-12-07T06:10:16.535712", "MEAN_MOTION": 14.27695126, "ECCENTRICITY": 0.00783081, "INCLINATION": 73.9802, "RA_OF_ASC_NODE": 159.8816, "ARG_OF_PERICENTER": 311.0752, "MEAN_ANOMALY": 229.7368, "EPHEMERIS_TYPE": 0, "CLASSIFICATION_TYPE": "U", "NORAD_CAT_ID": 33793, "ELEMENT_SET_NO": 999, "REV_AT_EPOCH": 87128, "BSTAR": 0.0010661569, "MEAN_MOTION_DOT": 2.691e-05, "MEAN_MOTION_DDOT": 0}, "tle": {"line1": "1 33793U 93036AJ  25341.25713583  .00002691  00000+0  10662-2 0  9999", "line2": "2 33793  73.9802 159.8816 0078308 311.0752 229.7368 14.27695126871285"}}, "geometry": {"type": "Point", "coordinates": [-35.54336529745593, 39.67108697968014]}}, {"type": "Feature", "properties": {"norad_id": 33795, "name": "COSMOS 2251 DEB", "group": "cosmos-2251-debris", "lat": -61.22763836552991, "lon": -62.44660875125915, "alt_km": 551.3766562468891, "timestamp": "2025-12-08T03:50:07.388637+00:00", "meta": {"OBJECT_NAME": "COSMOS 2251 DEB", "OBJECT_ID": "1993-036AL", "EPOCH": "2025-12-07T06:07:09.757056", "MEAN_MOTION": 15.05195494, "ECCENTRICITY": 0.0032401, "INCLINATION": 74.0332, "RA_OF_ASC_NODE": 87.9805, "ARG_OF_PERICENTER": 173.5467, "MEAN_ANOMALY": 210.7707, "EPHEMERIS_TYPE": 0, "CLASSIFICATION_TYPE": "U", "NORAD_CAT_ID": 33795, "ELEMENT_SET_NO": 999, "REV_AT_EPOCH": 89939, "BSTAR": 0.0022370714, "MEAN_MOTION_DOT": 0.000324, "MEAN_MOTION_DDOT": 0}, "tle": {"line1": "1 33795U 93036AL  25341.25497404  .00032400  00000+0  22371-2 0  9993", "line2": "2 33795  74.0332  87.9805 0032401 173.5467 210.7707 15.05195494899393"}}, "geometry": {"type": "Point", "coordinates": [-62.44660875125915, -61.22763836552991]}}, {"type": "Feature", "properties": {"norad_id": 33797, "name": "COSMOS 2251 DEB", "group": "cosmos-2251-debris", "lat": 49.16499610070459, "lon": -155.6622844801058, "alt_km": 652.3964003959481, "timestamp": "2025-12-08T03:50:07.388647+00:00", "meta": {"OBJECT_NAME": "COSMOS 2251 DEB", "OBJECT_ID": "1993-036AN", "EPOCH": "2025-12-07T04:20:11.444064", "MEAN_MOTION": 14.57814824, "ECCENTRICITY": 0.00609922, "INCLINATION": 74.0482, "RA_OF_ASC_NODE": 45.5241, "ARG_OF_PERICENTER": 135.0662, "MEAN_ANOMALY": 256.5741, "EPHEMERIS_TYPE": 0, "CLASSIFICATION_TYPE": "U", "NORAD_CAT_ID": 33797, "ELEMENT_SET_NO": 999, "REV_AT_EPOCH": 88904, "BSTAR": 0.00077989031, "MEAN_MOTION_DOT": 3.633e-05, "MEAN_MOTION_DDOT": 0}, "tle": {"line1": "1 33797U 93036AN  25341.18068801  .00003633  00000+0  77989-3 0  9994", "line2": "2 33797  74.0482  45.5241 0060992 135.0662 256.5741 14.57814824889049"}}, "geometry": {"type": "Point", "coordinates": [-155.6622844801058, 49.16499610070459]}}, {"type": "Feature", "properties": {"norad_id": 33798, "name": "COSMOS 2251 DEB", "group": "cosmos-2251-debris", "lat": -42.47065372278405, "lon": -20.364361358413834, "alt_km": 700.537592478272, "timestamp": "2025-12-08T03:50:07.388657+00:00", "meta": {"OBJECT_NAME": "COSMOS 2251 DEB", "OBJECT_ID": "1993-036AP", "EPOCH": "2025-12-07T06:00:48.619872", "MEAN_MOTION": 14.44604068, "ECCENTRICITY": 0.00925176, "INCLINATION": 74.0277, "RA_OF_ASC_NODE": 146.1295, "ARG_OF_PERICENTER": 268.694, "MEAN_ANOMALY": 269.8597, "EPHEMERIS_TYPE": 0, "CLASSIFICATION_TYPE": "U", "NORAD_CAT_ID": 33798, "ELEMENT_SET_NO": 999, "REV_AT_EPOCH": 88514, "BSTAR": 0.00029028918, "MEAN_MOTION_DOT": 1.029e-05, "MEAN_MOTION_DDOT": 0}, "tle": {"line1": "1 33798U 93036AP  25341.25056273  .00001029  00000+0  29029-3 0  9992", "line2": "2 33798  74.0277 146.1295 0092517 268.6940 269.8597 14.44604068885145"}}, "geometry": {"type": "Point", "coordinates": [-20.364361358413834, -42.47065372278405]}}]}